NameUa	NameRu	OldNameUa	OldNameRu	Lat	Lon
Київ	Киев			50.4500644	30.5241037
Бориспіль	Борисполь			50.3512101	30.9507700
Водогін (ДВС)	Водогон (ДВС)			50.5676077	30.4631292
Ірпінь	Ирпень			50.5166516	30.2500322
Вишневе	Вишнёвое			50.3917497	30.3678999
Боярка	Боярка			50.3356709	30.2847595
Петрушки	Петрушки			50.4216500	30.1625040
Дмитрівка	Дмитровка			50.4584854	30.1725886
Чорнобиль	Чернобыль			51.2705259	30.2194322
Прип’ять	Припять			51.4061237	30.0571098
Біла Церква	Белая Церковь			49.8038191	30.1116924
Бузова	Бузовая			50.4165610	30.0413210
Музичі	Музычи			50.3604130	30.1075880
Жорнівка	Жорновка			50.3209690	30.1647510
Мартусівка	Мартусовка			50.3077930	30.8641000
Проців	Процев			50.2461810	30.7879920
Ревне	Ревное			50.2870710	30.8353560
Гора	Гора			50.3740390	30.8620400
Петропавлівське	Петропавловское	Петровське	Петровское	50.3261600	30.8233590
Бзів	Бзов			50.3142930	31.2168370
Рогозів	Рогозов			50.2338830	31.0549550
Глибоке	Глубокое			50.2617190	30.9387090
Кийлів	Кийлов			50.1485060	30.8844830
Старе	Старое			50.1483760	31.0801220
Вишгород	Вышгород			50.5824332	30.4851210
Андріївка	Андреевка			50.3977430	31.0700870
Горобіївка	Горобиевка			50.4196850	31.0215850
Сеньківка	Сеньковка			50.4349750	31.0835130
Велика Стариця	Великая Старица			50.4479600	31.0821550
Берестянка	Берестянка			50.6910780	29.9907530
Нове Залісся	Новое Залесье			50.6866570	29.9736600
Бородянка	Бородянка			50.6465712	29.9255843
Шпитьки	Шпитьки			50.4145430	30.1195790
Личанка	Лычанка			50.4058420	30.0968590
Червоне	Червоное			50.0156290	29.9442830
Волошинівка	Волошиновка			50.3213865	31.3183667
Селичівка	Селичевка			50.3393780	31.2749040
Пуща-Водиця	Пуща-Водица			50.5325533	30.3610171
Гоголів	Гоголев			50.5126560	31.0225659
Буча	Буча			50.5485813	30.2207143
Требухів	Требухов			50.4832553	30.9011179
Русанів	Русанов			50.4965506	31.1641955
Славутич	Славутич			51.5201397	30.7562301
Денисовичі	Денисовичи			51.4881481	29.7060609
Машеве				51.4843400	30.1427100
Усів				51.4777210	30.0354613
Городчан	Городчан	Городчани		51.4579000	30.2855300
Коцюбинське	Коцюбинское			51.4558400	30.2515400
Красне	Красное			51.4520600	30.1190200
Бенівка	Бенивка			51.4478260	29.9726600
Кошарівка	Кошаровка			51.4290600	30.0057200
Річиця				51.4229251	29.8472086
Рудьки				51.4215100	29.8000700
Чапаєвка	Чапаевка			51.4204800	30.3263900
Старі Шепеличі				51.4201320	29.9459800
Новошепеличі	Новошепеличи			51.4191020	30.0218600
Зимовище	Зимовище	Zimovishche;Simowischtsche;Zimovišče		51.4187600	30.1770400
Красне	Красное			51.4013937	29.7507212
Нова Красниця				51.3978200	29.8392100
Буда	Буда			51.3954200	29.7777600
Янів				51.3943790	30.0600590
Становище	Становище			51.3882100	29.3836200
Крива Гора	Кривая Гора			51.3834000	30.2055400
Товстий Ліс				51.3830600	29.8035100
Буряківка	Буряковка			51.3792800	29.9109710
Чистогалівка				51.3624610	30.0070990
Вільча	Вильча			51.3597110	29.4313390
Кливини	Кливины			51.3562800	29.6266900
Старосілля				51.3545600	30.2120600
Стара Красниця				51.3473510	29.8512310
Бовище	Бовище			51.3425400	29.7386200
Стара Рудня				51.3332700	29.6400800
Новий Мир				51.3260600	29.5693600
Буда Варовичі	Буда Варовичи			51.3229700	29.4780400
Кошівка	Кошевка			51.3216000	30.2419300
Луб’янка				51.3195380	29.7664300
Вільшанка	Ольшанка			51.3167900	29.6998200
Весняне	Весеннее			51.3068400	29.6387100
Хутір Золотніїв				51.3027200	30.4455200
Стечанка				51.3016890	29.9223000
Лелів				51.3081240	30.1842296
Діброва	Диброва			51.2896796	29.6717232
Варовичі	Варовичи			51.2900090	29.5583710
Іллінці	Ильинцы			51.2896690	29.8656500
Рудня Іллінецька				51.2872700	29.8134600
Паришів	Парышев			51.2848700	30.3178000
Роз’їждже				51.2834900	29.9017000
Ковшилівка	Ковшиловка			51.2749100	29.5079000
Корогод	Корогод			51.2721600	30.0112210
Заглиб’я	Заглыбье			51.2628900	30.4623400
Тараси				51.2608300	29.3029400
Мартиновичі				51.2587700	29.6105590
Рудня-Грезлянська				51.2574000	29.4564100
Грезля	Грезля			51.2560300	29.4378700
Залісся	Залесье			51.2538870	30.1823770
Запілля	Заполье			51.2553400	30.1183300
Ладижичі	Ладыжычи			51.2550000	30.3995100
Іванівка	Ивановка			51.2474987	30.2477772
Замошня	Замошня	Замошшя		51.2395520	29.8903690
Глінка	Глинка			51.2368010	29.9065000
Нівецьке	Нивецкое			51.2392350	29.7863030
Поліське	Полесское			51.2404860	29.3889600
Теремці	Теремцы			51.2299841	30.4972879
Володимирівка	Владимировка			51.2269022	29.2999428
Луговики	Луговики			51.2222330	29.4680210
Плютовище	Плютовище			51.2186000	30.3033800
Федорівка	Фёдоровка			51.2186130	29.6960320
Зірка	Зирка	Червона Зірка		51.2150080	29.4311750
Новосілки	Новосёлки			51.2151700	30.0599700
Черевач	Черевач			51.2141400	30.1320700
Бички	Бычки			51.2095383	29.8734999
Зелена Поляна	Зелёная Поляна			51.2123680	29.5137140
Опачичі	Опачичи			51.2027440	30.3204460
Ямпіль	Ямполь			51.2055600	30.1825300
Оташів				51.1997220	30.3852790
Рагівка	Раговка			51.2002070	29.4104580
Жовтневе	Октябрьское			51.1997200	29.3286900
Черемошна	Черемошна			51.1997220	29.8220710
Мар’янівка	Марьяновка			51.1981430	29.4909800
Котовське	Котовское			51.1990300	29.3668000
Радинка	Радинка			51.1959800	29.7143570
Максимовичі	Максимовичи			51.1966860	29.6148380
Млачівка	Млачевка			51.1887740	29.5516380
Буда-Радинська	Буда-Радинская			51.1877780	29.6821480
Рудня Вересня	Рудня Вересня			51.1874390	30.1015510
Омелянівка	Омеляновка			51.1805230	29.7625600
Іловниця	Иловница			51.1792220	30.0598702
Кам’янка	Каменка			51.1745370	30.2428064
Шевченкове	Шевченково			51.1732900	29.3987300
Ясен	Ясен			51.1650500	29.4334000
Королівка	Короливка			51.1640200	29.6249800
Розсоха	Рассоха			51.1585580	29.9882130
Романівка	Романовка	Орджонікідзе		51.1578410	29.8117500
Купувате	Купуватое			51.1568100	30.3610600
Бобер	Бобер			51.1550057	29.5421636
Стещино	Стещино	Стещина		51.1499400	29.7293490
Марківка	Марковка			51.1410100	29.6943300
Калинівка	Калиновка			51.1399800	29.8014510
Городище	Городище			51.1389500	30.3888700
Буда Вовчківська	Буда Волчковская			51.1353110	29.5943890
Нова Марківка	Новая Марковка			51.1351800	29.4883400
Нові Соколи	Новые Соколы			51.1327710	29.8731990
Терехів	Терехов			51.1320361	30.0487259
Андріївка	Андреевка			51.1311071	30.0864678
Пухове	Пухово			51.1320903	29.5419329
Старі Соколи	Старые Соколы			51.1280709	29.9121619
Дубова	Дубовая			51.1272810	29.6627410
Потоки	Потоки			51.1243897	29.9489803
Шевченкове	Шевченково			51.1235010	29.8196390
Шкнева	Шкнева			51.1211010	29.4993190
Дитятки	Дитятки			51.1100160	30.1472070
Стара Марківка	Старая Марковка			51.1180110	29.4615590
Карпилівка	Карпиловка			51.1158030	30.0194190
Губин	Губин			51.1142310	30.2772900
Красилівка	Красиловка			51.1135480	29.8814390
Старий Міст		Петрівське	Петровское	51.1125180	29.7389600
Вовчків	Волчков			51.1080510	29.5535700
Городещина	Городещина			51.1073680	29.6716710
Димарка	Дымарка			51.1059910	29.7702010
Ковалівка	Ковалевка			51.1056520	29.9748190
Міхлівщина	Михлевщина			51.0982210	29.6436500
Рудня-Левківська	Рудня-Левковская			51.0963780	29.7609290
Піски	Пески			51.0899240	30.0237060
Медвин	Медвин			51.0843580	30.3373700
Військове	Войсковое			51.0816190	29.4831910
Стовпне	Столпное			51.0805890	29.5168300
Доманівка	Домановка			51.0798990	29.9779090
Красятичі	Красятичи			51.0782874	29.6377868
Левковичі		Володарка	Володарка	51.0771480	29.6960510
Нові Макалевичі	Новые Макалевичи			51.0768090	29.9140610
Поталіївка	Поталиевка			51.0712430	29.8084750
Страхолісся	Страхолесье			51.0730400	30.3929900
Вересня	Вересня			51.0730400	29.5903000
Горностайпіль	Горностайполь			51.0716590	30.2618410
Степанівка	Степановка			51.0689200	30.0410900
Зорин	Зорин			51.0617100	30.2010710
Мусійки	Мусийки			51.0538100	29.7526890
Лапутьки	Лапутьки			51.0524410	30.2601200
Оране	Ораное			51.0492520	30.1243460
Фрузинівка	Фрунзовка			51.0483210	30.1825290
Лісове	Лесовое	Чапаєве		51.0415230	29.6460690
Войкове	Войково			51.0424800	29.5185500
Хочева	Хочева			51.0387460	30.0896380
Залишани	Залишаны			51.0403370	29.5775360
Пилява	Пилява			51.0335500	30.3099100
Богдани	Богданы			51.0302873	30.2523586
Мала Макарівка	Малая Макаровка			51.0319630	29.9136070
Русаки	Русаки			51.0181470	29.9467950
Ритні	Рытни			51.0269533	30.2034779
Макарівка	Макаровка			51.0215420	29.8601490
Верхолісся	Верхолесье			51.0184520	29.4917700
Буда-Полідарівська	Буда-Полидаровская			51.0174220	29.5624900
Прибірськ	Приборск			51.0139690	30.0276200
Термахівка	Термаховка			51.0155330	29.6955990
Полідарівка	Полидаровка			51.0129510	29.6150210
Жміївка	Жмиевка			51.0105510	29.5216410
Любидва	Любидва			50.9961320	30.0781590
Обуховичі	Обуховичи			50.9937290	29.7671110
Федорівка	Фёдоровка			50.9885790	29.9137100
Пироговичі	Пироговичи			50.9851420	29.9727590
Чкаловка	Чкаловка			50.9851420	29.6682400
Сидоровичі	Сидоровичи			50.9823190	29.5905230
Рахвалівка	Рахваловка			50.9782790	29.4323690
Овдієва Нива	Авдеева Нива			50.9718413	30.2338232
Рихта	Рыхта			50.9769290	30.1560190
Олізарівка	Олизаровка			50.9741590	29.5216880
Воропаївка	Воропаевка			50.9720990	30.0139600
Варівськ	Варовск			50.9580190	29.4732300
Сукачі	Сукачи			50.9576800	29.9349990
Болотня	Болотня			50.9576800	29.8883090
Станішівка	Станишовка			50.9559590	29.7506290
Шевченкове	Шевченково			50.9525300	29.6720100
Людвинівка	Людвиновка			50.9507030	29.4575810
Сичівка	Сычовка			50.9484100	30.3092190
Рудня-Сидорівська	Рудня-Сидоровская			50.9497640	29.5712510
Білий Берег	Белый Берег			50.9456600	29.9755100
Вахівка	Ваховка			50.9408610	30.0946410
Сухолуччя	Сухолучье			50.9429360	30.4386370
Іванків	Иванков			50.9330100	29.9042867
Рокитна Слобода	Ракитная Слобода			50.9298710	29.9648700
Розважів	Розважев			50.9236910	29.6448900
Кропивня	Крапивня			50.9236910	29.5164910
Ставрівка	Ставровка			50.9233510	29.7169900
Мокра Корма	Мокрая Корма			50.9209250	29.5697960
Любимівка	Любимовка			50.9185410	30.2642400
Дмитрівка		Петрівське	Петровское	50.9168210	30.3483600
Жеревпілля	Жеревполье			50.9157910	29.6483190
Шпилі	Шпили			50.9151120	29.9518200
Запрудка	Запрудка			50.9147610	29.8495100
Андріївка	Андреевка			50.9090770	30.2220730
Старовичі	Старовичи			50.8993110	29.6136490
Захарівка	Захаровка			50.8965680	29.5010400
Толокунь	Толокунь			50.8891720	30.4327550
Жерева	Жерева			50.8890110	29.7173310
Рудня-Шпилівська	Рудня-Шпилевская			50.8883290	29.9858090
Володимирівка	Владимировка			50.8866080	30.1228010
Федорівка	Фёдоровка			50.8828320	30.2676790
Олива	Олива			50.8817600	29.5475770
Рови	Ровы			50.8779170	30.3042776
Коленцівське	Коленцовское			50.8752780	29.8464200
Трость				50.8745900	30.1911200
Коленці	Коленцы			50.8734197	29.8692495
Рудня-Димерська	Рудня-Дымерская			50.8707960	30.1025240
Розтісне	Растесное			50.8649790	30.2893100
Осовець	Осовец			50.8608590	29.5587200
Сувид	Сувид			50.8577690	30.7586310
Ясногородка	Ясногородка			50.8570900	30.3995090
Круги	Круги			50.8490370	30.3107970
Рудня-Тальська	Рудня-Тальская			50.8543400	29.9827190
Ровжі	Ровжи			50.8526190	30.6017300
Тетерівське	Тетеревское			50.8491900	29.7324410
Зимовище	Зимовище			50.8481600	29.9590300
Слобода-Кухарська	Слобода-Кухарская			50.8457600	29.5453300
Підгайне	Подгайное			50.8395810	29.6610300
Блідча	Блидча			50.8358380	29.7999340
Гута-Катюжанська	Гута-Катюжанская			50.8323710	30.1145590
Калинове		Кірове	Кирово	50.8316800	29.5267910
Феневичі	Феневичи			50.8313410	30.0785100
Боденьки	Боденьки			50.8303110	30.7277300
Глібівка	Глебовка			50.8182910	30.3799400
Кухарі	Кухари			50.8158910	29.5909900
Яхнівка	Яхновка			50.8141590	29.6347960
Леонівка	Леоновка			50.8124500	29.9133700
Катюжанка	Катюжанка			50.8092580	30.1364970
Жукин	Жукин			50.8083310	30.6985490
Соснівка	Сосновка			50.7949410	30.0445190
Заруддя	Зарудье			50.7897910	29.5460090
Коблиця	Коблица			50.7784000	29.8891410
Дудки	Дудки			50.7755890	30.0899510
Коблицький Ліс	Коблицкий Лес			50.7712520	29.9123400
Тальське	Тальское			50.7702220	29.8423000
Воропаїв	Воропаев			50.7691690	30.6582370
Опанасів	Опанасов			50.7681600	31.0933700
Красний Ріг	Красный Рог			50.7650720	30.0352500
Рикунь	Рыкунь			50.7643890	30.2584100
Козаровичі	Козаровичи			50.7560540	30.3518960
Літочки	Леточки			50.7566590	30.7660357
Раска	Раска			50.7610101	29.5976884
Пірнове	Пирново			50.7527850	30.6685870
Лісовичі	Лесовичи			50.7523690	30.1942100
Мирча	Мирча			50.7499690	29.8333700
Калита	Калита			50.7498578	31.0249121
Абрамівка	Абрамовка			50.7451590	30.0942990
Великий Ліс	Великий Лес			50.7437100	29.9206680
Садове товариство «Полісся»	Садовое товарищество «Полесье»			50.7390354	30.6341526
Миколаївка	Николаевка			50.7342190	30.2056180
Соболівка	Соболевка			50.7384652	30.7500889
Вища Дубечня	Высшая Дубечня			50.7341800	30.6515100
Литвинівка	Литвиновка			50.7300830	30.2411230
Шибене	Шибеное			50.7273100	30.0232300
Семиполки	Семиполки			50.7235260	30.9460770
Демидів	Демидов			50.7277410	30.3306330
Михайленків	Михайленков			50.7250100	29.9501510
Савенки	Савенки			50.7152900	30.0791890
Стара Буда	Старая Буда			50.7162970	29.8474770
Лебедівка	Лебедевка			50.7136540	30.5446320
Тарасівщина	Тарасовщина			50.7106510	30.2181030
Літки	Летки			50.7069393	30.7429533
Пісківка	Песковка			50.6968561	29.5931036
Торф’яне	Торфяное			50.6894542	29.8081677
Заворичі	Заворичи			50.6991600	31.1345700
Качали	Качалы			50.6981320	29.8306290
Поташня	Поташня			50.6967193	29.7528606
Бондарня	Бондарня			50.6937024	29.7689578
Небрат	Небрат			50.6927950	29.9535730
Мокрець	Мокрец			50.6857700	31.1568800
Лютіж	Лютеж			50.6841960	30.3948520
Нижча Дубечня	Низшая Дубечня			50.6795880	30.6271400
Нова Буда	Новая Буда			50.6668240	29.7577800
Синяк	Синяк			50.6785390	30.2657030
Галинка	Галинка			50.6773349	29.8315290
Гаврилівка	Гавриловка			50.6747820	30.2069090
Здвижівка	Здвижевка			50.6734090	30.0695800
Мигалки	Мигалки			50.6728170	29.5533620
Червоне	Червоное			50.6699710	30.2769510
Рожни	Рожны			50.6706878	30.7409737
Гайове	Гаевое	Фрунзівка		50.6631916	31.0540831
Волиця	Волица			50.6632993	29.8620588
Загальці	Загальцы			50.6624180	29.8048800
Вороньківка	Вороньковка			50.6610490	30.2275100
Рудня-Мигальська				50.6597383	29.5779434
Раківка	Раковка			50.6552090	30.2556590
Бобрик	Бобрик			50.6524600	31.0810100
Рудня	Рудня			50.6521200	31.0051400
Шевченкове	Шевченково			50.6462737	31.0395948
Старі Петрівці	Старые Петровцы			50.6493680	30.4115300
Гай	Гай			50.6500970	29.8437960
Луб’янка	Лубянка			50.6533393	30.1753231
Бервиця	Бервица			50.6373600	31.1905300
Залісся	Залесье			50.6318646	30.8753525
Вишняки	Вишняки			50.6304890	29.7448010
Нові Петрівці	Новые Петровцы			50.6223645	30.4450972
Дружня	Дружня			50.6267200	29.8711400
Богданівка	Богдановка			50.6249989	30.9138046
Озера	Озёра			50.6246600	30.2096600
Тарасівка	Тарасовка			50.6222185	31.0064208
Майданівка	Майдановка			50.6188200	29.7115000
Новосілки	Новосёлки			50.6204853	30.6277842
Михайлівка	Михайловка			50.6194693	31.0692725
Буда-Бабинецька	Буда-Бабинецкая			50.6216010	30.0609760
Язвинка	Язвинка			50.6126400	29.6703000
Вільне	Вольное			50.6116100	31.0054800
Пилиповичі	Пилиповичи			50.6095500	29.9552500
Соболівка	Соболевка			50.6088600	29.6098710
Зазим’я-Сади	Зазимье-Сады			50.6075165	30.6407786
Олексіївка	Алексеевка			50.6061210	31.8129690
Макарівська Буда	Макаровская Буда			50.6057700	29.6356200
Захарівка	Захаровка			50.6047400	31.0174900
Рожівка	Рожевка			50.6020894	30.7565263
Мощун	Мощун			50.6046106	30.3081105
Блиставиця	Блиставица			50.5995900	30.1756710
Гребельки	Гребельки			50.6008168	31.1037096
Дмитрівка	Дмитровка	Жовтневе		50.5978810	29.7835900
Хотянівка	Хотяновка			50.5965000	30.5763300
Жердова	Жердова			50.5999465	31.0417165
Новий Корогод	Новый Когород			50.5949210	29.7947290
Вабля	Вабля			50.5934870	29.8656500
Кодра	Кодра			50.5913510	29.5628400
Велика Димерка	Великая Дымерка			50.5918348	30.9010894
Пухівка	Пуховка			50.5908854	30.7168625
Новомирівка	Новомировка			50.5899810	29.6909010
Озерщина	Озерщина			50.5837744	29.7657134
Гостомель	Гостомель			50.5882600	30.2590900
Покровське	Покровское	Куйбишеве	Куйбишево	50.5880232	31.0754855
Середівка	Середовка			50.5858610	31.8572600
Клавдієво-Тарасове	Клавдиево-Тарасово			50.5841400	30.0095000
Мироцьке	Мироцкое			50.5817490	30.1229950
Волосінь	Волосень			50.5838550	29.6673700
Нова Гребля	Новая Гребля			50.5807110	29.8865890
Скибин	Скибин			50.5805633	30.8318677
Микуличі	Микуличи			50.5800210	30.0699200
Підлісся	Подлесье			50.5789900	31.0174900
Осещина	Осещина			50.5755600	30.5478300
Першотравневе	Першотравневое			50.5728110	31.0734600
Немішаєве	Немешаево			50.5680100	30.1015029
Горенка	Горенка			50.5666953	30.3188022
Пороскотень	Пороскотень			50.5656080	29.9554029
Світильня	Светильня			50.5642300	31.1551700
Калинівка	Калиновка			50.5637731	30.8228756
Забуяння	Забуянье			50.5615160	29.6511690
Зазим’я	Зазимье			50.5667713	30.6791472
Олександринівка	Александриновка			50.5594980	31.7926390
Погреби	Погребы			50.5546247	30.6425879
Аркадіївка	Аркадьевка			50.5579300	31.8600010
Кулажинці	Кулажинцы			50.5546697	31.2107001
Зоря	Заря			50.5550547	30.9446227
Андріївка	Андреевка			50.5511820	29.8324220
Ворзель	Ворзель			50.5457287	30.1562891
Королівка	Королевка			50.5492060	29.7352220
Червона Гірка	Червоная Горка			50.5478170	29.8809170
Плоске	Плоское			50.5439700	31.0940600
Перемога	Перемога			50.5429842	30.8252477
Терлещина	Терлещина			50.5400350	31.9213310
Діброва	Диброва	Діброво-Ленінське		50.5355110	30.0304890
Іллінське	Ильинское			50.5366590	31.9731540
Ферма	Ферма			50.5322990	29.6884900
Красне	Красное			50.5312690	31.7168410
Квітневе	Квитневое	Димитрове		50.5332605	30.8458859
Красилівка	Красиловка			50.5257800	30.9117500
Турівка	Туровка			50.5175400	31.9733100
Усівка	Усовка			50.5154800	31.6794200
Плахтянка	Плахтянка			50.5151410	29.8968910
Козинці	Козинцы			50.5147900	30.0582500
Полковниче		Петрівське	Петровское	50.5144500	32.0429990
Лозовик	Лозовик			50.5141110	29.8529400
Софіївка	Софиевка			50.5130810	31.6083510
Липівка	Липовка			50.5099910	29.8175790
Комарівка	Комаровка			50.5093000	29.5295300
Пасківщина	Пасковщина			50.5082700	31.9193990
Михайлівка-Рубежівка	Михайловка-Рубежовка			50.5041500	30.1489430
Перемога	Перемога			50.4983100	31.2506100
Забуччя	Забучье			50.4976310	30.1718900
Згурівка	Згуровка			50.4950666	31.7691817
Коцюбинське	Коцюбинское			50.4904717	30.3337903
Урсалівка	Урсаловка			50.4928360	31.9600830
Щасливе	Сачастливое	Леніне	Ленино	50.4930460	31.8519520
Великий Крупіль	Великий Круполь			50.4917910	31.5060410
Лук’янівка	Лукьяновка			50.4921610	31.3792970
Малий Крупіль	Малый Круполь			50.4907610	31.5283600
Хмільна	Хмельная			50.4912990	30.0342060
Ніжиловичі	Нежиловичи			50.4852710	29.6366500
Мар’янівка	Марьяновка			50.4801220	29.9597210
Гавронщина	Гавронщина			50.4801634	29.8613693
Переможець	Переможец			50.4794300	30.9591300
Рудницьке	Рудницкое			50.4739420	31.3642500
Княжичі	Княжичи			50.4603562	30.7861932
Займище	Займище			50.4687880	30.9938110
Черевки	Черевки			50.4674110	31.7491210
Стара Оржиця	Старая Оржица			50.4640270	31.9033010
Миколаївка	Николаевка			50.4667280	30.0256400
Войтове	Войтово	Войкове		50.4646680	31.5623490
Перше Травня	Перше Травня			50.4612300	31.1812600
Вишеград	Вышеград			50.4592440	29.9156090
Лукаші	Лукаши			50.4588320	31.4411600
Борівка	Боровка			50.4564290	29.5460090
Маковище	Маковище			50.4550510	29.8718300
Стоянка	Стоянка			50.4540210	30.2261390
Перегуди	Перегуды			50.4523090	31.0459900
Зурівка	Зуровка			50.4535140	29.7493880
Вільне	Вольное			50.4509320	31.7192500
Пайки	Пайки			50.4516260	32.0043680
Колонщина	Колонщина			50.4495580	29.9473590
Дударків	Дударков			50.4492190	30.9515800
Лісне	Лесное			50.4467050	30.1125260
Нова Олександрівка	Новая Александровка			50.4420090	31.6602000
Мила	Милая			50.4413760	30.1723020
Горбачівка	Горбачовка			50.4422870	32.0180740
Володимирське	Владимирское			50.4475330	31.8399660
Садки-Строївка	Садки-Строевка			50.4414290	29.5136890
Буча	Буча			50.4399490	30.0747300
Свобода	Свобода			50.4365920	31.7711050
Пилипче	Пилипче			50.4397470	31.5452920
Фасівочка	Фасовочка			50.4377710	29.7972580
Петропавлівська Борщагівка	Петропавловская Борщаговка			50.4371990	30.3459610
Мрія	Мрия			50.4371830	30.1281950
Гурівщина	Гуровщина			50.4338340	30.0932670
Любимівка	Любимовка			50.4344480	30.0709500
Чайки	Чайки			50.4327390	30.2851910
Григорівка	Григоровка			50.4296490	31.1524200
Старе	Старое			50.4288410	31.6289120
Шевченкове	Шевченково			50.4295010	31.8292120
Березівка	Березовка			50.4290730	29.9955770
Завалівка	Заваловка			50.4277840	29.7327960
Лисиця	Лисица			50.4225040	29.4999430
Мала Стариця	Малая Старица			50.4234700	31.1651190
Гостролуччя	Остролучье			50.4218180	31.2883700
Корніївка	Корнеевка			50.4187130	31.4448070
Гореничі	Гореничи			50.4193310	30.2114890
Калинівка	Калиновка			50.4181400	29.7988970
Софіївська Борщагівка	Софиевская Борщаговка			50.4118800	30.3659570
Юрів	Юров			50.4175570	29.7329900
Северинівка	Севериновка			50.4147490	29.9706210
Безуглівка	Безугловка			50.4142000	31.7662790
Любомирівка	Любомировка	Право Жовтня	Право Жовтня	50.4143870	31.9618840
Ярешки	Ярешки			50.4078100	31.5611650
Лизогубова Слобода	Лизогубова Слобода			50.4083400	31.9124390
Паришків	Парышков			50.4134710	31.4218900
Вознесенське	Вознесенское	Жовтневе		50.4061130	32.0256610
Небелиця	Небелица			50.4133150	29.5990390
Копилів	Копылов			50.4087100	29.8958610
Майське	Майское			50.4083600	31.8713400
Лозівка				50.4073543	30.9642609
Левченкове	Левченково			50.4056210	31.7010500
Шнурів Ліс	Шнуров Лес			50.4056210	29.4728910
Селище	Селище			50.4049300	31.3031410
Шевченкове	Шевченково			50.4116330	30.2573340
Мала Олександрівка	Малая Александровка			50.3972210	30.8239460
Сулимівка	Сулимовка			50.4004710	31.1850400
Копіївка	Копиевка			50.3992040	29.6994210
Озерне	Озёрное			50.3986021	31.7681369
Гречана Гребля	Гречаная Гребля			50.3922390	32.0673450
Безуглівка	Безугловка			50.3984110	30.8386190
Велика Олександрівка	Великая Александровка			50.3935090	30.8734130
Сезенків	Сезенков			50.3942910	31.2368790
Проліски	Пролески			50.3921430	30.7796400
Горбовичі	Горбовичи			50.3905110	30.1526600
Несторівка				50.3901700	30.9639400
Білогородка	Белогородка			50.3901710	30.2278500
Гнатівка	Гнатовка			50.3901710	30.2130910
Рожів	Рожев			50.3872870	29.6508960
Червона Слобода	Червоная Слобода			50.3887900	29.6805990
Мала Березанка	Малая Березанка			50.3884510	31.7130700
Вишневе	Вишнёвое			50.3858220	31.9717010
Мотижин	Мотыжин			50.3826100	29.9260690
Фасова	Фасова			50.3826100	29.8124290
Чубинське	Чубинское			50.3819310	30.8520110
Людвинівка	Людвиновка			50.3815800	29.8275390
Хлопків	Хлопков			50.3827510	31.3559530
Бакумівка	Бакумовка	Червоноармійське		50.3802110	31.4349800
Пасічна	Пасечная			50.3787730	31.3131560
Неграші	Неграши			50.3784900	30.0737000
Щасливе	Счастливое			50.3781510	30.7912500
Святопетрівське	Святопетровское	Петрівське		50.3852080	30.3227790
Нова Оржиця	Новая Оржица	Безбородьків хутір		50.3821870	31.9379020
Швачиха	Швачиха			50.3731840	31.2799640
Лукомщина	Лукомщина			50.3712810	32.1267700
Супоївка	Супоевка			50.3770070	31.7400230
Лехнівка	Лехновка			50.3827670	31.5458510
Власівка	Власовка			50.3688810	31.2385900
Лука	Лука			50.3685420	30.1691400
Жуківка	Жуковка			50.3681910	31.6406310
Артемівка	Артёмовка			50.3706250	31.0759790
Кучаків	Кучаков	Кірове	Кирове	50.3679050	31.1302190
Дернівка	Дерновка			50.3644220	31.3711200
Великий Карашин	Великий Карашин			50.3659400	29.6463720
Баришівка	Барышевка			50.3645295	31.3256722
Недра	Недра			50.3620110	31.5105090
Сотниківка	Сотниковка			50.3585820	31.8346000
Лебедин	Лебедин			50.3626384	31.1485730
Новосілки	Новосёлки			50.3555790	30.4616550
Бобриця	Бобрица			50.3565220	30.1859700
Зелене	Зелёное			50.3554920	32.0217090
Червоне	Червоное			50.3551480	31.9496190
Ясногородка	Ясногородка			50.3534320	30.0112210
Морозівка	Морозовка			50.3483390	31.2081320
Мала Супоївка	Малая Супоевка			50.3493120	31.6639710
Гензерівка	Гензеровка			50.3482820	32.0450590
Садове	Садовое			50.3472520	31.5403800
Чабани	Чабаны			50.3414340	30.4271010
Тарасівка	Тарасовка			50.3372000	30.3216040
Дзюбівка	Дзюбовка			50.3410680	31.7350410
Малий Карашин	Малый Карашин			50.3408430	29.6352140
Розумівка	Разумовка			50.3366090	31.7951200
Юрівка	Юровка			50.3361459	30.3645441
Шевченкове	Шевченково	Кут	Кут	50.3355330	31.7216300
Коржі	Коржи			50.3348880	31.3512000
Мар’янівка	Марьяновка			50.3361590	29.7210410
Черкасівка	Черкасовка			50.3331720	31.7415600
Шовкове	Шёлковое			50.3311080	31.3079490
Княжичі	Княжичи			50.3293990	30.1358390
Гнідин	Гнедин			50.3287090	30.7057590
Рокитне	Ракитное			50.3276790	31.8116000
Хотів	Хотов			50.3263210	30.4686470
Лозовий Яр	Лозовый Яр			50.3218380	31.9942490
Вітрівка	Ветровка			50.3214990	29.8629000
Віта-Поштова	Вита-Почтовая			50.3197168	30.3809098
Кулябівка	Кулябовка			50.3176570	31.6838800
Тужилів	Тужилов			50.3044660	31.7019710
Нове	Новое			50.3205490	30.3067300
Червоне Заріччя	Червоное Заречье			50.3136410	31.7378040
Забір’я	Заборье			50.3160100	30.2199600
Березань	Березань			50.3132713	31.4689158
Лемешівка	Лемешовка			50.3115500	32.0735510
Райківщина	Райковщина			50.3104630	31.7863640
Пашківка	Пашковка			50.3111990	29.8708000
Іванків	Иванков			50.3224260	31.0570700
Лісники	Лесники			50.3084600	30.5179600
Новосілки	Новосёлки			50.3067400	30.0702710
Кайнари	Кайнары			50.3057100	31.8843800
Лишня	Лишня			50.3053700	29.9504510
Вишеньки	Вишенки			50.3043400	30.7146800
Кременище	Кременище			50.2987440	30.4663310
Борщів	Борщёв			50.2971690	31.3672850
Яблуневе	Яблоневое			50.2874790	31.6392900
Годунівка	Годуновка			50.2943800	32.0598180
Дубове	Дубовое	Більшовик		50.2936900	31.5980490
Горобіївка	Горобиевка			50.2926600	29.8797210
Малютянка	Малютянка			50.2909510	30.2714500
Мостище	Мостище			50.2909510	30.0342200
Устинкова Гребля	Устинкова Гребля			50.2878610	31.2955890
Іванків	Иванков			50.2864800	30.2999500
Грузьке	Грузское			50.2864800	29.7598990
Соколівщина	Соколовщина			50.2811090	31.7129710
Григорівка	Григоровка			50.2846490	31.6604750
Яготин	Яготин			50.2758913	31.7634861
Зайців	Зайцев			50.2788612	30.3579437
Мархалівка	Мархалевка			50.2786450	30.3663230
Затишне	Затишное	Ленінівка	Лениновка	50.2806130	30.8680440
Бобриця	Бобрица			50.2792700	30.2254510
Божки	Божки			50.2789310	31.9032710
Жоравка	Жоравка			50.2782400	32.0536380
Липовий Скиток	Липовый Скиток			50.2772140	30.2058790
Іванковичі	Иванковичи			50.2768710	30.4221710
Сулимівка	Сулимовка			50.2758410	31.9630110
Кириївщина	Кириевщина			50.2721520	31.0940270
Ходосівка	Ходосовка			50.2727510	30.5220790
Лебедівка	Лебедевка			50.2713810	32.0193100
Хмельовик	Хмелевик			50.2688980	31.5974980
Дзвінкове	Дзвонковое			50.2710300	30.0489810
Весела Слобідка	Весёлая Слободка			50.2701840	29.7431580
Городище	Городище			50.2685700	30.9989930
Варовичі	Варовичи			50.2679410	30.2130910
Бишів	Бышев			50.2665710	29.8869300
Кожухівка	Кожуховка			50.2551880	30.2323880
Переяславське	Переяславское			50.2621310	31.6545730
Леонівка	Леоновка			50.2648510	29.9878690
Любарці	Любарцы			50.2617610	31.1606600
Семенівка	Семёновка			50.2546840	31.5178470
Яблунівка	Яблоновка			50.2590220	29.9813500
Глеваха	Глеваха			50.2596730	30.3059171
Двірківщина	Дворковщина			50.2544210	31.8764130
Заострів	Заостров			50.2581560	31.3969230
Козичанка	Козичанка			50.2549020	29.7777600
Нові Опачичі	Новые Опачичи			50.2529300	29.7917480
Підгірці	Подгорцы			50.2461998	30.5539871
Засупоївка	Засупоевка			50.2524300	31.7266010
Перевіз	Перевоз			50.2422410	30.0026990
Черняхівка	Черняховка			50.2494010	31.9482400
Зелений Бір	Зелёный Бор			50.2483710	30.3751390
Воронівщина	Вороновщина			50.2421570	31.8565730
Гвоздів	Гвоздов			50.2439120	30.4843100
Романків	Романков			50.2389830	30.5756530
Леляки	Леляки			50.2387620	31.5372910
Данилівка	Даниловка			50.2384190	30.2172110
Веселинівка	Веселиновка			50.2404400	31.2749100
Масківці	Масковцы			50.2349820	31.3361000
Креничі	Креничи			50.2363510	30.5136890
Рославичі	Рославичи			50.2438320	30.4374520
Крушинка	Крушинка			50.2336100	30.3651800
Юрівка	Юровка			50.2329220	29.7032600
Конопельки	Конопельки			50.2322390	29.8011000
Лубське	Лубское			50.2271540	29.8836000
Калинівка	Калиновка			50.2257254	30.2261781
Григорівка	Григоровка			50.2281040	31.6872430
Пристроми	Пристромы			50.2229690	31.4332600
Коптевичівка	Коптевичевка			50.2229610	31.9831910
Вороньків	Вороньков			50.2222790	30.9011100
Чорногородка	Черногородка			50.2209090	29.9755100
Ферма	Ферма			50.2205580	29.9161210
Плесецьке	Плесецкое			50.2203560	30.1223720
Богданівка	Богдановка			50.2178500	32.0177310
Соснівка	Сосновка			50.2191890	29.8450510
Козлів	Козлов			50.2188490	31.5764200
Багрин	Багрин			50.2152860	30.2117420
Василівка	Василевка			50.2167890	29.6840310
Кобці	Кобцы			50.2160990	30.3023490
Крячки	Крячки			50.2123651	30.2978900
Вільне	Вольное			50.2123180	29.7729490
Черняхівка	Черняховка			50.2191850	31.9307120
Студеники		Жовтневе	Жовтневое	50.2162900	31.6120110
Малі Дмитровичі	Малые Дмитровичи			50.2078590	30.5213910
Борисів	Борисов			50.2074130	30.3401660
Панфили	Панфилы			50.2089420	31.7751050
Дерев’янки	Деревянки			50.2040980	30.3818320
Вільшанська Нива	Ольшанская Нива			50.2040900	29.7691710
Мала Бугаївка	Малая Бугаевка			50.2034000	30.4043200
Березенщина	Березенщина			50.2027519	30.2988220
Діброва	Диброва			50.2023700	30.2069090
Жереб’ятин	Жеребятин	Жовтневе		50.2020300	30.8461800
Залізне	Зализное			50.2012600	30.3521820
Ярошівка	Ярошовка			50.2006490	29.8374900
Великі Дмитровичі	Великие Дмитровичи			50.1999700	30.5560700
Деминівка	Деминовка			50.1985890	29.7046300
Ничипорівка	Ничипоровка			50.1968800	31.8088490
Васильки	Васильки			50.1913220	31.1052720
Тарасівка	Тарасовка			50.1940040	31.1731150
Путрівка	Путровка			50.2060430	30.2707860
Козин	Козин			50.2289510	30.6478750
Поділля	Подолье			50.1934390	31.3604700
Вовчків	Волчков			50.1924320	31.4872040
Гречанівка	Гречановка			50.1913800	31.9743400
Здорівка	Здоровка			50.1939280	30.2432590
Хлепча	Хлепча			50.1872600	30.1814990
Томашівка	Томашовка			50.1872600	29.8079700
Скрипки	Скрипки			50.1856610	30.1443630
Паращина	Паращина			50.1764300	30.5514530
Головурів	Головуров			50.1831090	30.9843410
Мала Тарасівка	Малая Тарасовка			50.1797100	31.2803610
Мирне	Мирное			50.1777230	31.1697180
Велика Бугаївка	Великая Бугаевка			50.1789590	30.4449180
Борова	Боровая			50.1783400	30.1025400
Сомкова Долина	Сомкова Долина			50.1765980	31.6883700
Васильків	Васильков			50.1738700	30.3215800
Дорогинка	Дорогинка			50.1736220	29.9168820
Кощіївка	Кощиевка			50.1735040	29.9680210
Плюти	Плюты			50.1711310	30.7260090
Велика Солтанівка	Великая Солтановка			50.1736260	30.1944690
Зозулі	Зозули			50.1681940	30.2431680
Мала Солтанівка	Малая Солтановка			50.1798590	30.1431370
Хутір Страшуків	Хутор Страшуков			50.1703566	29.9836206
Конюша	Конюша			50.1712070	30.5267140
Пришивальня	Пришивальня			50.1676900	29.8151800
Застугна	Застугна			50.1730800	30.2876910
Трубівщина	Трубовщина			50.1688920	31.8020000
Нові Безрадичі	Новые Безрадичи			50.1715510	30.5970310
Мазінки	Мазинки			50.1646000	31.3604700
Червоне	Червоное			50.1641810	30.2792190
Соснівка	Сосновка	Радянське		50.1625400	31.7168410
Капустяна	Капустяная			50.1615100	30.5409600
Малі Єрківці	Малые Ерковцы			50.1608310	31.2585110
Тарасівка	Тарасовка			50.1598010	30.5965810
Тарасенки	Тарасенки			50.1593250	29.9854430
Великі Гуляки	Великие Гуляки			50.1584210	29.6943300
Гланишів	Гланышев			50.1580810	31.4991800
Таценки	Таценки			50.1641690	30.6721970
Безп’ятне	Беспятное			50.1603890	30.2631380
Соснова	Соснова			50.1556820	31.7638800
Мотовилівка	Мотовиловка	Червона Мотовилівка		50.1515620	30.0812490
Заріччя	Заречье			50.1501810	30.4091300
Дідівщина	Дедовщина			50.1502753	29.7703970
Велика Мотовилівка	Великая Мотовиловка			50.1425780	30.0857720
Старі Безрадичі	Старые Безрадичи			50.1653060	30.5757450
Харківці	Харьковцы			50.1457210	31.4195310
Вишняки	Вишняки			50.1496240	30.0168250
Кончаки	Кончаки			50.1484410	29.7850340
Нещерів	Нещеров			50.1433180	30.6082500
Березове	Берёзовое			50.1416020	30.5265410
Вишня	Вишня			50.1393620	29.8357370
Застугна	Застугна			50.1392750	30.4774280
Велика Офірна	Великая Офирна			50.1287770	29.9557820
Погреби	Погребы			50.1381680	30.4105000
Луб’янка	Лубянка			50.1442260	30.4442920
Українка	Украинка			50.1537167	30.7420742
Кулібаба	Кулибаба			50.1357610	30.2951390
Порадівка	Порадовка			50.1354220	30.1773800
Фарбоване	Фарбованое			50.1340480	31.8462790
Руликів	Руликов			50.1340480	30.2058790
Мала Офірна	Малая Офирна			50.1313020	29.9411790
Мотовилівська Слобідка	Мотовиловская Слободка			50.1302680	30.0424590
Митниця	Мытница			50.1288990	30.2319700
Гайшин	Гайшин			50.1236080	31.4803710
Млинок	Млынок			50.1308440	29.7657870
Єрківці	Ерковцы			50.1268390	31.2663990
Копачів	Копачов			50.1252590	30.4881100
Федорівка	Фёдоровка			50.1230580	29.6963900
Барахти	Барахты			50.1166650	30.3655820
Дем’янці	Демьянцы			50.1172220	31.4102590
Халеп’я	Халепье			50.1161920	30.8176800
Трипілля	Триполье			50.1148190	30.7768310
Велика Каратуль	Великая Каратуль			50.1141280	31.5517100
Оленівка	Оленовка			50.1147998	30.1223460
Помоклі	Помокли			50.1117290	31.6753010
Дерев’яна	Деревянная			50.1113890	30.6872200
Перше Травня	Перше Травня			50.1103590	30.5492000
Обухів	Обухов			50.1101943	30.6267497
Чирське	Чирское			50.1088290	31.4944080
Витачів	Витачов			50.1089780	30.8705500
Сошників	Сошников			50.1067310	31.1283090
Дениси	Денисы			50.1055490	31.7978710
Гребля	Гребля			50.1048580	31.4432200
Плескачі	Плескачи			50.1045190	31.5366000
Мала Снітинка	Малая Снетинка			50.1213191	29.9410907
Щербанівка	Щербановка			50.0980000	30.7315100
Веприк	Веприк			50.1086100	29.8070954
Велика Снітинка	Великая Снетинка			50.0950797	30.0144854
Мар’янівка	Марьяновка			50.0938610	31.5410980
Кодаки	Кодаки			50.0945510	30.2517550
Скригалівка	Скригалевка			50.0907900	29.7345010
Пшеничне	Пшеничное			50.0904500	30.2055400
Веселе	Весёлое			50.0854570	31.3328800
Дівички	Девички			50.0854800	31.2816600
Шевченкове	Шевченково			50.0863300	30.5100590
Бориспільські Дачі	Бориспольские Дачи			50.0844417	31.0481621
Кавказ	Кавказ			50.0791780	31.3566110
Красне Перше	Красное Первое			50.0792010	30.6728630
Фастів	Фастов			50.0799307	29.9162821
Травневе	Травневое			50.0780910	31.6159100
Велика Вільшанка	Великая Ольшанка			50.0787120	30.4486060
Козіївка	Козиевка			50.0770610	30.6899700
Жуківці	Жуковцы			50.0767100	30.7788910
Ставки	Ставки			50.0767100	29.7204210
Положаї	Положаи			50.0763700	31.8325410
Гречаники	Гречаники			50.0763700	31.3271690
Стайки	Стайки			50.0760310	30.8956200
Мала Вільшанка	Малая Ольшанка			50.0736200	30.4760700
Капустинці	Капустинцы			50.0722500	31.8792400
Клехівка	Клеховка			50.0714805	30.0807384
Тростинка	Тростинка			50.0648880	30.3627610
Воскресенське	Воскресенское			50.0660710	31.5534190
Переяслав-Хмельницький	Переяслав-Хмельницкий			50.0643984	31.4447327
Мар’янівка	Марьяновка			50.0612600	30.1657100
Долина	Долина			50.0588610	30.6964890
Ленди	Ленды			50.0564610	30.5413090
Виповзки	Выползки			50.0596850	31.6624570
Стовп’яги	Столпяги			50.0688970	31.3535230
Григорівка	Григоровка			50.0521320	30.6227510
Соснова	Сосновая			50.0526800	31.3426200
Мала Каратуль	Малая Каратуль			50.0502820	31.5650900
Ташань	Ташань			50.0499310	31.8373510
Добраничівка	Добраничевка			50.0480120	31.8910730
Шевченкове	Шевченково			50.0478710	31.7587300
Ксаверівка	Ксаверовка			50.0478710	30.2154900
Плужники	Плужники			50.0411640	31.8696750
Гусачівка	Гусачевка			50.0458110	30.6449910
Степок	Степок			50.0458110	30.5258600
Гвардійське	Гвардейское			50.0434110	30.0136200
Верем’я	Веремье			50.0406610	30.8087500
Червоне Поле	Червоное Поле			50.0370180	30.2874410
Волиця	Волица			50.0283810	29.7781660
Вінинці	Вининцы			50.0285082	31.6027713
Натягайлівка	Натягайловка			50.0293730	31.7120440
Дмитрівка	Дмитровка			50.0283919	29.7261633
Ксаверівка Друга	Ксаверовка Вторая			50.0269320	30.1691400
Макарівка	Макаровка			50.0228120	30.6927110
Матяшівка	Матяшёвка			50.0224690	30.6309110
Шевченківка	Шевченковка			50.0221210	30.3064710
Гребені	Гребени			50.0200610	30.9745810
Перше Травня	Перше Травня			50.0135040	31.7221620
Красна Слобідка	Красная Слободка			50.0169720	30.5876500
Стрітівка	Стретовка			50.0135380	30.8870300
Червоне	Червоное			50.0161590	30.3440000
Півні	Пивни			50.0094180	29.7272890
Лецьки	Лецки			50.0145278	31.6176166
Черняхів	Черняхов			50.0070190	30.7771700
Вінницькі Стави	Винницкие Ставы			50.0063290	30.1207410
Горбані	Горбани			50.0056380	31.8843800
Пінчуки	Пинчуки			50.0052990	30.2275100
Деремезна	Деремезна			50.0049590	30.4891200
Пологи-Вергуни	Пологи-Вергуны			50.0010910	31.7222710
Юшки	Юшки			50.0035780	30.9584410
Паляничинці	Паляничинцы			50.0018690	29.9854700
Кищинці	Кишинцы			49.9977490	29.9556010
Яцьки	Яцки			49.9975320	30.4301700
Бортники	Бортники			49.9963680	29.8917410
Пилипівка	Пилиповка			49.9953380	29.9240090
Циблі	Цибли			49.9936330	31.5690560
Германівка	Германовка			49.9905400	30.5584700
Королівка	Королевка			49.9867590	29.8931100
Леонівка	Леоновка			49.9875180	30.7089820
Тростинська Новоселиця	Тростинская Новоселица			49.9850500	30.2831310
Ковалівка	Ковалевка			49.9840200	30.0074410
Пологи-Чобітки	Пологи-Чеботки			49.9833300	31.6807900
Триліси	Трилесы			49.9829900	29.8423000
Вільшанська Новоселиця	Ольшанская Новоселица			49.9826390	30.3147110
Степанівка	Степановка			49.9816090	30.3329110
Семенівка	Семёновка			49.9809300	30.5234510
Улянівка	Ульяновка			49.9799000	31.7460310
Макіївка	Макеевка			49.9774890	30.4379690
Перегонівка	Перегоновка			49.9762690	30.4937590
Антонівка	Антоновка			49.9740520	30.6799720
Кожанка	Кожанка			49.9689600	29.7488820
Зікрачі	Зикрачи			49.9737280	30.9041080
Чопилки	Чопилки			49.9716570	31.8937640
Ржищів	Ржищев			49.9682200	31.0411800
Пологи-Яненки	Пологи-Яненки			49.9678800	31.7168410
Безіменне	Безымянное			49.9637910	30.6514150
Новосілки	Новосёлки			49.9665300	30.7528460
Устимівка	Устимовка			49.9658200	30.0125900
Панікарча	Паникарча			49.9637870	30.9785210
Василів	Василев			49.9603310	30.4640600
Расавка	Расавка			49.9589500	30.8279800
Халча	Халча			49.9568900	30.9021400
Воронівка	Вороновка			49.9548300	30.9423100
Єлизаветівка	Елизаветовка			49.9548300	29.9477010
Гребінки	Гребёнки			49.9534600	30.1763499
Балико-Щучинка	Балыко-Щучинка			49.9510610	31.1400600
Кузьминці	Кузьминцы			49.9503710	30.9955200
Петрівка	Петровка			49.9450720	30.3142090
Тарасівка	Тарасовка			49.9452210	31.7707500
Павлівка	Павловка			49.9453390	30.3612080
Великий Букрин	Великий Букрин			49.9445300	31.3120710
Горохове	Гороховое			49.9445300	30.7050700
Йосипівка	Йосиповка			49.9421310	30.3809700
Софіївка	Софиевка			49.9421270	29.7441020
Виселкове		Петрівське	Петровское	49.9407620	30.8334690
Саливoнки				49.9393810	30.2124000
Горохівське		Петрівське	Петровское	49.9353140	30.7338450
Кулі	Кули			49.9370420	30.5318470
Сидори	Сидоры			49.9325220	29.9923310
Сущани	Сущаны			49.9296110	30.5636920
Людвинівка	Людвиновка			49.9283980	30.5104100
Затиша	Затиша			49.9283980	30.4379690
Уляники	Ульяники			49.9256520	31.1163690
Ходорів	Ходоров			49.9235920	31.2420290
Мирівка	Мировка			49.9234550	30.6196840
Малополовецьке	Малополовецкое			49.9160080	29.8131900
Степок	Степок			49.9186250	30.4768520
Красне	Красное			49.9177510	30.4235500
Малий Букрин	Малый Букрин			49.9170680	31.3264900
Пологи	Пологи			49.9163820	30.1045990
Великі Пріцьки	Великие Прицки			49.9156910	30.9762990
Демівщина	Демовщина			49.9215200	30.9291040
Іванівка	Ивановка			49.9161830	30.6854550
Онацьки	Онацки			49.9132880	31.0432400
Горохуватка	Гороховатка			49.9132880	30.6947710
Лосятин	Лосятин			49.9129490	30.2601200
Слобода	Слобода			49.9122580	30.8272900
Виселка		Петрівське	Петровское	49.9125860	31.0171760
Соколівка	Соколовка			49.9091680	30.2034800
Тарасівка	Тарасовка			49.9088290	30.7260090
Мазепинці	Мазепинцы			49.9103523	29.9900729
Андріївка	Андреевка			49.9078220	29.9624810
Яхни	Яхны			49.9150310	29.7312300
Півці	Певцы			49.9057390	31.0737990
Гайок	Гаёк			49.9036790	30.0826300
Хоцьки	Хоцки			49.9029880	31.6488700
Ромашки	Ромашки			49.9103780	31.2761800
Дунайка	Дунайка			49.9012720	29.6905500
Степове	Степовое			49.9005890	29.6678910
Липовий Ріг	Липовый Рог			49.9010620	31.1326730
Оріхове	Орехово			49.8944090	30.9100300
Розаліївка	Розалиевка			49.8933790	30.5402790
Бендюгівка	Бендюговка			49.8899380	30.6501410
Дібрівка	Дибровка			49.8889080	30.9828210
Дрозди	Дрозды			49.8860630	29.9770410
Олійникова Слобода	Олейникова Слобода			49.8871990	30.3164290
Тарасівка	Тарасовка			49.8878290	29.8554880
Яблунівка	Яблоновка			49.8821910	31.0591750
Глушки	Глушки			49.8840070	30.2162130
Дударі	Дудари			49.8835260	31.2605650
Ведмедівка	Ведмедевка			49.8845410	31.1709380
Грушів	Грушев			49.8799590	31.2155860
Світанок	Свитанок			49.8741490	31.7085990
Мала Михайлівка	Малая Михайловка			49.8741490	29.8814390
Вільна Тарасівка	Вольная Тарасовка			49.8734700	30.0846900
Калинівка	Калиновка			49.8695070	31.0120600
Храпачі	Храпачи			49.8707200	30.2357500
Михайлівка	Михайловка			49.8703800	30.4784790
Кадомка	Кадомка			49.8696900	30.9522590
Рогізна	Рогозна			49.8696900	29.7152690
Великополовецьке	Великополовецкое			49.8693500	29.9253900
Пії	Пии			49.8727070	31.1320230
Іванівка	Ивановка			49.8684880	30.3988060
Скребиші	Скребыши			49.8669470	30.2551630
Зорівка	Зоревка			49.8679430	30.9868010
Малі Прицьки	Малые Прицки			49.8623240	31.0977340
Красноліси	Краснолесы			49.8611110	29.7932090
Краснянка	Краснянка			49.8604200	29.6709800
Володимирівка	Владимировка			49.8524970	30.0540940
Стави	Ставы			49.8557620	30.6737750
Мала Антонівка	Малая Антоновка			49.8587000	30.3620890
Владиславка	Владиславка			49.8506430	29.8595100
Вербова	Вербовая			49.8490910	30.5261990
Шпендівка	Шпендовка			49.8446310	30.6110000
Бурти	Бурты			49.8408510	30.9272000
Буки	Буки			49.8370700	29.6551900
Македони	Македоны			49.8322720	31.1211800
Малі Єрчики	Малые Ерчики			49.8315810	29.5958000
Горобіївка	Горобиевка			49.8302310	31.0413400
Очеретяне	Очеретяное			49.8288310	30.9852200
Тарасівка	Тарасовка			49.8281520	31.0037590
Узин	Узин			49.8284745	30.4197205
Кип’ячка	Кипячка			49.8264310	31.0645290
Чубинці	Чубинцы			49.8247110	29.6850610
Піщана	Песчаная			49.8243710	30.2422700
Тулинці	Тулинцы			49.8226510	31.1833190
Безугляки	Безугляки			49.8216210	29.9676090
Пищики	Пищики			49.8157880	29.9473590
Расавка	Расавка			49.8151020	30.7394010
Таборів	Таборов			49.8126980	29.7104700
Малі Лисівці	Малые Лисовцы			49.8120120	29.5007000
Зелений Яр		Жовтневе	Жовтневое	49.8092610	30.8599090
Запруддя	Запрудье			49.8085780	30.6446500
Фурси	Фурсы			49.7974010	30.0003830
Острійки	Острийки			49.8054890	30.3064710
Тарасівка	Тарасовка			49.8047980	30.5114400
Маківка	Маковка			49.8034290	30.5804500
Дулицьке	Дулицкое			49.8017390	29.7547870
Безпечна	Беспечная			49.7975880	29.7489200
Миньківці	Миньковцы			49.7975880	29.4722000
Великі Єрчики	Великие Ерчики			49.7972490	29.6318400
Коритище	Корытище			49.7995070	30.9999180
Ліщинка	Лещинка			49.7917520	30.7376900
Кулешів	Кулешов			49.7876280	31.0940610
Липовець	Липовец			49.7869490	30.8969900
Руда	Руда			49.7937850	29.8445990
Тернівка	Терновка			49.7855680	30.7524510
Чмирівка	Чмыревка			49.7752340	30.0105950
Савинці	Савинцы			49.7804180	30.5021710
Блощинці	Блощинцы			49.7802010	30.3299430
Шандра	Шандра			49.7811200	31.1644860
Нова Маківка		Петрівське	Петровское	49.7756200	30.5749490
Матюші	Матюши			49.7718510	29.9000360
Шамраївка	Шамраевка			49.7726060	29.8416100
Світле	Светлое			49.7696500	30.9849740
Телешівка	Телешовка			49.7684100	30.6278190
Потік	Поток			49.7661020	31.0517600
Глибічка	Глыбочка			49.7611850	30.0406280
Золотуха	Золотуха			49.7591400	29.7217900
Селезенівка	Селезёновка			49.7588010	29.5693610
Шубівка	Шубовка			49.7567410	30.7637810
Трушки	Трушки			49.7660100	29.9445670
Зеленьки	Зеленьки			49.7546810	30.9155290
Польове	Полевое			49.7507020	30.9934100
Матвіївка	Матвеевка			49.7518960	30.8413090
Цапіївка	Цапиевка			49.7519300	29.5267910
Чепиліївка	Чепилиевка			49.7512400	30.3346290
Землянка	Землянка			49.7474710	30.7435210
Шкарівка	Шкаровка			49.7423440	30.1632190
Томилівка	Томиловка			49.7457500	30.2611500
Кривошиїнці	Кривошеинцы			49.7409400	29.4951990
Тарасівка	Тарасовка	Ленінське		49.7399100	29.7987000
Кам’яна Гребля	Каменная Гребля			49.7369190	29.7213420
Вікторівка	Викторовка			49.7357900	30.8369100
Сухоліси	Сухолесы			49.7351110	30.3792590
Нова Пустоварівка	Новая Пустоваровка			49.7347600	29.7798190
Сквира	Сквира			49.7336928	29.6626664
Пилипча	Пилипча			49.7316700	30.0201400
Бирюки	Бирюки			49.7313310	30.2862210
Клочки	Клочки			49.7313310	30.2673300
Житні Гори	Житные Горы			49.7296100	30.4647500
Ромашки	Ромашки			49.7292710	30.6013910
Калинівка	Калиновка			49.7261810	30.6590690
Фролівка	Фроловка			49.7244610	30.7912500
Першотравневе	Першотравневое			49.7244610	30.7061000
Городище	Городище			49.7234310	30.0112210
Коженики	Коженики			49.7286990	30.2277220
Кутелів	Кутелев			49.7223170	31.0609950
Пугачівка	Пугачовка			49.7148510	30.3198600
Шарки	Шарки			49.7128600	30.6192300
Бакумівка	Бакумовка			49.7120170	30.5982000
Бакали	Бокалы			49.7052400	30.0438300
Новий Шлях	Новый Шлях			49.7045520	29.5199200
Луб’янка	Лубянка			49.7031780	30.7318500
Ями	Ямы			49.7028310	29.5597500
Квітневе	Квитневое			49.7018010	29.5841200
Козин	Козин			49.7011180	31.1084800
Кононівка	Кононовка			49.7004320	29.6912400
Домантівка	Домантовка			49.6966510	29.6294400
Саврань	Саврань			49.6963080	29.5594010
Тхорівка	Тхоровка			49.6939090	29.7629910
Пустоварівка	Пустоваровка			49.6932180	29.8175790
Ємчиха	Емчиха			49.6816520	31.1565340
Олександрівка	Александровка			49.6915020	30.7754500
Черкас	Черкас			49.6904720	30.1801300
Яблунівка	Яблоновка			49.6904720	29.9614300
Мала Вільшанка	Малая Ольшанка			49.6941340	30.0826630
Одноріг	Однорог			49.6873820	30.2316300
Рокитне	Ракитное			49.6867282	30.4730340
Росава	Росава			49.6829190	30.9574110
Салів	Салов			49.6767390	31.0710510
Сорокотяги	Сорокотяги			49.6763990	30.0314690
Поправка	Поправка			49.6750180	30.2649310
Мала Сквирка	Малая Сквирка			49.6729580	29.9535410
Пустовіти	Пустовиты			49.6712490	30.8674600
Острів	Остров			49.6702190	30.3878400
Токарівка	Токаревка			49.6698680	29.6521000
Синява	Синява			49.6640010	30.4551510
Шапіївка	Шапиевка			49.6661000	29.6136490
Бикова Гребля	Быковая Гребля			49.6626700	30.1564410
Самгородок	Самгородок			49.6619800	29.5628400
Любка	Любка			49.6609500	30.7074700
Ольшаниця	Ольшаница			49.6609500	30.6415600
Шаліївка	Шалиевка			49.6578410	29.7002160
Троїцьке		Довгалівське	Довгалевское	49.6595800	30.3445800
Фесюри	Фесюры			49.6578180	29.9629840
Андріївка	Андреевка			49.6581650	31.0673890
Веснянка	Веснянка			49.6540790	29.8471110
Коржівка	Коржевка			49.6513400	30.0846900
Озерна	Озёрная			49.6427800	30.1310160
Городище-Пустоварівське	Городище-Пустоваровское			49.6437800	29.9394610
Карапиші	Карапыши			49.6431010	30.7888390
Насташка	Насташка			49.6413800	30.2985800
Центральне	Центральное			49.6421240	31.0870630
Терешки	Терешки			49.6400110	29.7235110
Бушеве	Бушево			49.6396600	30.6013910
Щербаки	Щербаки			49.6389810	29.9531900
Нова Миронівка		П’ятирічка	Пятиричка	49.6379430	31.1302070
Фастівка	Фастовка			49.6352010	30.0060690
Владиславка	Владиславка			49.6330410	30.9500920
Нова Олександрівка	Новая Александровка			49.6303900	31.0250490
П’ятихатка	Пятихатка			49.6319580	31.1035590
Антонів	Антонов			49.6259310	29.7839390
Улянівка	Ульяновка			49.6194110	29.5377690
Рибчинці	Рыбчинцы			49.6156310	29.5532210
Салиха	Салиха			49.6146010	30.4489500
Гайок	Гаёк			49.6130980	30.0222300
Гулі	Гули			49.6128810	30.9666810
Микитяни	Микитяны			49.6037980	30.9891340
Юхни	Юхны			49.6084210	30.8870300
Колесникове	Колесниково			49.6084210	30.3305090
Яхни	Яхны			49.6077840	31.0148050
Тарасівка	Тарасовка			49.6063610	30.0414300
Потіївка	Потиевка			49.6152340	30.2292270
Межове	Межевое			49.6046410	30.0984190
Олексіївка	Алексеевка			49.5983120	31.1307200
Крива	Кривая			49.5977780	30.4953000
Вахутинці	Вахутинцы			49.5970920	30.9557000
Михайлівка	Михайловка			49.5950320	31.0865000
Шупики	Шупики			49.5946880	30.9038600
Біліївка	Белиевка			49.5944100	29.7939850
Мовчанівка	Молчановка			49.5946880	29.5429190
Чупира	Чупира			49.5943410	30.1917990
Михайлівка	Михайловка			49.5933110	29.9360290
Оріховець	Ореховец			49.5926280	29.6212010
Лаврики	Лаврики			49.5919420	29.7187000
Красюки	Красюки			49.5908090	30.3197020
Петрашівка	Петрашёвка			49.5885090	29.8337190
Карандинці	Карандинцы			49.5871320	30.9429890
Тадіївка	Тадиевка			49.5843890	30.0816000
Саварка	Саварка			49.5812990	30.6896190
Кирдани	Кирданы			49.5802690	30.5543500
Березна	Березна			49.5802690	29.9078810
Бовкун	Бовкун			49.5799220	30.6274800
Улашівка	Улашовка			49.5721240	30.4503190
Северинівка	Севериновка			49.5758020	30.2910190
Туники	Туники			49.5747720	30.8705500
Гайворон	Гайворон			49.5740890	29.8320010
Синиця	Синица			49.5722470	30.6988140
Семигори	Семигоры			49.5686420	31.0006920
Каленна	Каленная			49.5682490	29.5717600
Чернин	Чернин			49.5658490	30.3514500
Лютарі	Лютари			49.5644680	30.7490200
Мисайлівка	Мисайловка			49.5637510	30.8159600
Іванівка	Ивановка			49.5560420	31.1060520
Пархомівка	Пархомовка			49.5548970	30.0462820
Рогізна	Рогозна			49.5545200	29.7959500
Рубченки	Рубченки			49.5545200	29.7111490
Степок	Степок			49.5521550	30.6205270
Логвин	Логвин			49.5514300	29.9367100
Бородані	Бородани			49.5500600	30.7435210
Богуслав	Богуслав			49.5476500	30.8733000
Чепіжинці	Чепижинцы			49.5476490	29.5961400
Вільховець	Ольховец			49.5469700	31.0130290
Малоберезанське	Малоберезанское			49.5455890	30.5811290
Володимирівка	Владимировка			49.5455890	29.6507300
Тарган	Тарган			49.5438800	29.9985100
Дружба	Дружба			49.5411300	29.8491710
Тептіївка	Тептиевка			49.5397610	30.9512290
Червоні Яри	Червоные Яры			49.5380400	30.3638100
Чайки	Чайки			49.5373500	30.7751100
Розкопанці	Раскопанцы			49.5356410	30.8331300
Калинівка	Калиновка			49.5346110	30.9766410
Половецьке	Половецкое			49.5322000	31.0096000
Дешки	Дешки			49.5301400	30.9454000
Дибинці	Дыбинцы			49.5298000	30.7716810
Надросівка	Надросевка			49.5311360	29.9675060
Володимирівка	Владимировка			49.5294610	30.4129010
Потоки	Потоки			49.5290950	30.4373150
Капустинці	Капустинцы			49.5267110	29.5927100
Ожегівка	Ожеговка			49.5263228	30.0467750
Буда	Буда			49.5243110	30.6240500
Володарка	Володарка			49.5224979	29.9280475
Лісовичі	Лесовичи			49.5225910	30.4788210
Ріжки	Рожки			49.5219000	30.2999500
Івки	Ивки			49.5205310	30.8750190
Кислівка	Кисловка			49.5195010	30.6065410
Коржиха	Коржиха			49.5181310	29.5635200
Хохітва	Хохитва			49.5177800	30.9144990
Ратуш	Ратуш			49.5095410	29.9463290
Поташня	Поташня			49.5081710	30.9248010
Гостра Могила	Острая Могила			49.5074810	30.1550690
Кленове	Кленовое			49.5068020	29.6589700
Лук’янівка	Лукьяновка			49.5061110	30.5708290
Любча	Любча			49.5061110	30.1331010
Москаленки	Москаленки			49.5018120	31.0539800
Мармуліївка	Мармулиевка			49.4986880	29.6105210
Завадівка	Завадовка			49.4995920	29.8817810
Рачки	Рачки			49.4978710	29.9140610
Руде Село	Рудое Село			49.4971810	29.7115000
Кошів	Кошев			49.4920310	29.5865310
Біївці	Биевцы			49.4986040	30.9962460
Яцюки	Яцюки			49.4875720	30.8554500
Ісайки	Исайки			49.4875720	30.8269500
Ківшовата	Ковшеватая			49.4851680	30.6236990
Юшків Ріг		Петрівське	Петровское	49.4844820	30.3651790
Лихачиха	Лихачиха			49.4844820	29.9985100
Матвіїха	Матвеиха			49.4827610	29.9888990
Погреби	Погребы			49.4789890	29.6572490
Городище-Косівське	Городище-Косовское			49.4762380	29.8038500
Лука	Лука			49.4788480	30.6730860
Станишівка	Станишовка			49.4696620	30.5281260
Василиха	Василиха			49.4686890	30.0328500
Іванівка	Ивановка			49.4636690	30.1354470
Косівка	Косовка			49.4666290	29.7523500
Зрайки	Зрайки			49.4662820	29.8254800
Богатирка	Богатырка			49.4635390	30.1190200
Полковниче	Полковничье			49.4587860	30.2241520
Мала Березянка	Малая Березянка			49.4573590	30.4767610
Шевченкове	Шевченково			49.4508081	29.7761169
Ясенівка	Ясеновка			49.4551700	30.2842520
Бране Поле	Браное Поле			49.4499740	30.7254680
Велика Вовнянка	Великая Вовнянка			49.4470600	30.4369390
Маковецьке	Маковецкое			49.4436300	30.6477390
Скибинці	Скибинцы			49.4436300	29.7451400
Дібрівка	Дибровка			49.4432110	30.7744880
Киданівка	Кидановка			49.4391590	30.9649700
Круті Горби	Крутые Горбы			49.4274290	30.6117760
Кашперівка	Кашперовка			49.4330560	29.6804080
Гута	Гута			49.4308360	30.8441580
Кривець	Кривец			49.4305800	30.1083790
Торчиця	Торчица			49.4309010	30.0160050
Мала Вовнянка	Малая Вовнянка			49.4278300	30.4654290
Бурківці	Бурковцы			49.4297180	29.6030770
Велика Березянка	Великая Березянка			49.4268000	30.5509200
Дубівка	Дубовка			49.4240610	30.4743600
Лобачів	Лобачов			49.4230310	29.8786910
Дмитренки	Дмитренки			49.4216500	30.8678090
Вишківське	Вышковское			49.4175300	30.1533510
Журавлиха	Журавлиха			49.4141010	30.3349700
Григорівка	Григоровка			49.4130710	29.7877100
Винарівка	Винаровка			49.4082600	30.1097510
Черепинка	Черепинка			49.4082600	29.8381810
Коряківка	Коряковка			49.4079930	30.9105660
Закутинці	Закутинцы			49.4079210	30.6782890
Нове Життя	Нове Життя			49.4079210	29.9257300
Софійка	Софийка			49.4031940	30.6896400
Веселе	Весёлое			49.4007110	29.9638400
Черепин	Черепин			49.3993420	29.8000700
Антонівка	Антоновка			49.3931620	30.2628710
Тарасівка	Тарасовка			49.3928110	29.5336490
Молочне	Молочное			49.3886910	29.9665790
Медвин	Медвин			49.3859480	30.7806000
Ставище	Ставище			49.3862015	30.1831481
Красногородка	Красногородка			49.3828580	30.6848200
Щербашинці	Щербашенцы			49.3818280	30.8856600
Сухий Яр	Сухой Яр			49.3818280	30.0266700
Стрижавка	Стрижавка			49.3818280	29.9940490
Галайки	Галайки			49.3811420	29.8721690
Калинове	Калиново	Чапаєвка		49.3807980	30.4321310
Побережка	Побережка			49.3766780	30.6765800
Антонівка	Антоновка			49.3759920	30.5595000
Дзвеняче	Дзвеняче			49.3756480	29.5727900
Софіпіль	Софиполь			49.3739320	29.8347490
Михайлівка	Михайловка			49.3735890	29.5611190
Тетіїв	Тетиев			49.3686166	29.6771098
Сніжки	Снежки			49.3672220	30.1187320
Веселий Кут	Весёлый Кут			49.3667180	30.5220790
Попружна	Попружна			49.3622600	30.3590000
Косяківка	Косяковка			49.3608820	30.5540100
Митаївка	Митаевка			49.3598520	30.7119410
Перше Травня	Перше Травня			49.3595090	29.6023200
Червоне	Червоное			49.3553890	30.0561900
Григорівська Слобода	Григоровская Слобода			49.3543590	30.0307900
Гейсиха	Гейсиха			49.3492090	30.2958300
Одайпіль	Одайполь			49.3416600	29.9693300
П’ятигори	Пятигоры			49.3416600	29.9298500
Теліжинці	Тележинцы			49.3409690	29.5793210
Станіславчик	Станиславчик			49.3349634	30.3790880
Юрківка	Юрковка			49.3255650	30.0989360
Торчицький Степок	Торчицкий Степок			49.3272630	30.0753400
Ненадиха	Ненадиха			49.3262100	29.8471110
Дібрівка	Дибровка			49.3196910	29.7647090
Розумниця	Разумница			49.3076820	30.2207640
Росішки	Росишки			49.3111000	29.6744190
Красилівка	Красиловка			49.2974400	30.3383100
Бесідка	Беседка			49.3096960	30.2721790
Денихівка	Дениховка			49.3063010	29.7949200
Дубина	Дубина			49.2894898	29.7479261
Тайниця	Тайница			49.2750510	29.9319100
Степове	Степовое			49.2787818	29.8487340
Голодьки	Голодьки			49.2692180	29.6517600
Високе	Высокое			49.2520516	29.8165061
Горошків	Горошков			49.2468551	29.9027543
Стадниця	Стадница			49.2389527	29.7460370
Ріденьке	Реденькое			49.2151869	29.8805203
Клюки	Клюки			49.2106155	29.7910404
Хмелівка	Хмелевка			49.1962622	29.7765419
Поділ	Подол			50.4691280	30.5166240
Дослідницьке	Дослидницкое			49.9240070	30.1482320
Тараща	Тараща			49.5554980	30.5023421
Київська область	Киевская область			50.1785950	30.4924884
Бортничі	Бортничи			50.3800605	30.6913394
Чмирівка	Чмыревка			50.3130953	30.6396836
Дачний масив «Вишеньки»				50.3171061	30.6475333
Лісняки	Лесняки			50.2480958	31.7897919
Стара аптека	Старая аптека			50.2544773	31.7776160
Радгосп	Совхоз			50.2556654	31.7647086
Підварки	Пидварки			50.2807512	31.7381078
Райсоюз	Райсоюз			50.2405055	31.7917152
ПТФ	ПТФ			50.2884003	31.7241424
ЦИНС	ЦИНС			50.2369847	31.7821846
Каштани	Каштаны			50.2679592	31.7657258
Козловщина	Козловщина			50.2615248	31.7922034
Супій	Супой			50.2522176	31.7692089
Залізничний	Железнодрожный			50.2344267	31.8010086
Нова зупинка	Новая остановка			50.2598550	31.7740799
Гострий півострів	Острый полуостров			50.3676827	30.5733935
Галерний острів	Галерный остров			50.3733359	30.5589181
Червоний хутір	Красный хутор			50.2925024	31.7554842
Бачиївщина	Бачийивщина			50.2246745	31.7930986
Сорочий Яр				50.2633530	31.7606382
Жуків острів	Жуков остров			50.3428896	30.5761869
Водників острів	Остров Водников	Чернечий острів		50.3469212	30.5925135
Муромець острів	Остров Муромец			50.5179664	30.5457560
Рибальський острів	Рыбальский остров			50.4797045	30.5302356
Чорна гора	Чёрная гора			50.4105383	30.5414088
Корчувате	Корчеватое			50.3656438	30.5534315
Теремки 2	Теремки 2			50.3798290	30.4526790
Лиса гора	Лысая гора (Девичь-гора)			50.3964880	30.5500640
ДВРЗ	ДВРЗ			50.4515813	30.6799107
Воскресенка	Воскресенка			50.4842146	30.5986460
Звіринець	Зверинец			50.4182869	30.5558262
Оболонь	Оболонь			50.5107350	30.5033700
Теремки 1	Теремки 1			50.3673440	30.4537140
Віта-Литовська		Чапаєвка	Чапаевка	50.3326407	30.5570302
Троєщина	Троещина			50.5136843	30.6064777
Деміївка	Демиевка			50.4056111	30.5162560
Рембаза	Рембаза			50.4218704	30.6938632
Мишоловка	Мышеловка			50.3732274	30.5285347
Биківня	Быковня			50.4759847	30.6704628
Осокорки	Осокорки			50.3928584	30.6360391
Голосіїв	Голосеево			50.3790549	30.4916449
Багринова гора	Багринова Гора			50.3866810	30.5395021
Добрий Шлях	Добрый Путь			50.3940755	30.5207260
Лісовий масив	Лесной массив			50.4721436	30.6307388
Соцмісто	Соцгород			50.4424366	30.6230032
Стара Дарниця	Старая Дарница			50.4377570	30.6450762
Червоний Хутір	Красный Хутор			50.4090817	30.6763923
Китаїв	Китаево			50.3700827	30.5427499
Харківський масив	Харьковский массив			50.4123149	30.6564200
Конча-Заспа	Конча-Заспа			50.2997241	30.5745980
Нова Дарниця	Новая Дарница			50.4262340	30.6626501
Позняки	Позняки			50.4119607	30.6250910
ДРСУ	ДРСУ			50.2762587	31.7773027
Площа танкістів	Площадь танкистов			50.2843929	31.7608711
Мриги				50.2699472	30.5685670
Бусова гора	Бусовая гора			50.4079162	30.5556305
Корабельна балка				50.2571284	31.7615418
Калиновий гай				50.1555019	31.8152626
Шполянка	Шполянка			50.4858700	30.4615400
Гарячиївщина	Гарячийивщина			50.2522604	31.8272057
Дача М. С. Хрущова				50.2448556	31.7450565
Самбурки	Самбурки			50.3692443	30.5125250
Левада	Левада			50.2523454	31.7979986
Лук’янівка	Лукьяновка			50.4676150	30.4682831
Татарка	Татарка			50.4691522	30.4874961
Солдатська слобідка	Солдатская слободка			50.4530327	30.4883861
Шулявка	Шулявка			50.4547283	30.4488522
Долина джерел (екопоселення)	Долина источников (экопоселение)			50.3906180	29.9446451
Федорівка	Фёдоровка			50.2335470	31.7195840
ДНС				49.8082481	30.0929239
Піщаний масив	Песчаный массив			49.7856671	30.0922418
Гайок	Гаёк			49.8092460	30.0447299
Леваневського масив	Леваневского массив			49.7866264	30.1518503
Залізничне Селище	Железнодорожный посёлок			49.8143676	30.1164912
Макарів	Макаров			50.4639897	29.8068986
Теличка	Теличка			50.3956238	30.5710753
Комбікормовий завод	Комбикормовый завод			50.2945184	31.7792292
Димер	Дымер			50.7835487	30.3078042
Романівка	Романовка			50.4887637	30.2595808
Попова Руга				50.7058602	30.7605378
Хутір				50.6830360	30.7612871
Рокитне	Рокитное			50.7199314	30.7452176
Ситняки	Ситняки			50.4227290	29.7150750
Капітанівка	Капитановка			50.4426690	30.1910100
Райдужний масив	Радужный массив			50.4873754	30.5859409
Бабинці	Бабинцы			50.6424120	30.0290694
Борщагівка	Борщаговка			50.4251451	30.3781367
Маслівка	Масловка			49.7189060	31.1689700
Піонерська				49.8206141	30.0705807
урочище Бобровня				50.5159939	30.5531547
Наливайківка	Наливайковка			50.4836836	29.7111305
Почепин	Почепин			50.4913640	29.7733710
парк "Муромець"		Парк Дружби Народів	Парк Дружбы Народов	50.5042800	30.5422880
Розкішна	Роскошная			49.3734400	30.1898310
Солом’янка	Соломенка			50.4331575	30.4759963
Плоске	Плоское			49.4757800	30.2959750
Осикове	Осыково			50.3280680	29.9794770
Кагарлик	Кагарлык			49.8650658	30.8226786
Переселення	Переселение			49.8923110	30.7908860
Котеджне містечко «Рославичі»				50.2377505	30.4587959
Золоче				50.3010865	30.6970891
Вишневе містечко				50.2878297	30.7000694
Гатне	Гатное			50.3585470	30.3962840
Гута-Межигірська	Гута-Межигорская			50.6756360	30.3103770
ЖК "Новосельцево"				50.3870852	30.8400020
Довга Гребля		Леніне	Ленино	50.1762810	31.5108510
Березняки	Березняки			50.4293964	30.6042846
Нивки	Нивки			50.4701622	30.4093067
Новобіличі	Новобеличи			50.4749874	30.3439160
Русанівка	Русановка			50.4397740	30.5982990
Русанівські Сади	Русанівские Сады			50.4747092	30.5736553
Совки	Совки			50.4061564	30.4864294
Ширма	Ширма			50.4053385	30.4954329
Сулимівське - 3				50.3829772	31.1861249
Пирогів	Пирогов			50.3467060	30.5213740
Куликове				50.4834287	30.6075836
Кибальчич				50.4927767	30.5975715
Північно-Броварський масив		Комсомольський масив	Комсомольский массив	50.4627610	30.6182596
Лівобережний масив	Левобережный массив			50.4561510	30.5901471
Ковалин	Ковалин			50.0824660	31.2138080
Круглик	Круглик			50.3025820	30.4557130
Хутір База	Хутор База			50.4404602	30.3969502
Садівниче товариство «Дружба»	Садовое товарищество «Дружба»			50.9082331	30.5708747
Сонячна Долина	Солнечная Долина			50.2218719	30.5687885
Коттеджный городок Иванково				50.3051297	31.0945718
Трудовик				50.6753681	30.7131110
Строкова	Строкова			50.1229100	31.6252590
Сільгосп Технікум	Сельхоз Техникум			50.2998732	30.3536583
ЖК «Софія»	ЖК «София»			50.4019268	30.3775077
Каменка	Каменка			50.8320960	30.2844720
Феофанія	Феофания			50.3473089	30.4851478
Черкас	Черкас			49.6959340	30.2085360
Горобіївка	Горобиевка			49.6137810	29.6751840
Дубова	Дубовая			51.1139300	29.6012760
Вітряні гори	Ветряные горы			50.5125530	30.4364362
Селище Шевченка				50.5187879	30.4368338
Виноградар	Виноградарь			50.5084299	30.4269935
Мостицький масив	Мостицкий массив			50.5019616	30.4396346
Западинка				50.5072991	30.4449314
Мінський масив	Минский массив			50.5192120	30.4619194
Вишгородський масив				50.5090383	30.4543867
Мостище				50.5013217	30.4443156
Суклєєвий Яр	Суклеєв яр			50.4981137	30.4385700
Замковище				50.4938616	30.4364276
Біличе поле				50.4925430	30.4360045
Куренівка	Куренёвка			50.4917582	30.4633167
Кинь-Ґрусть				50.5204470	30.4488642
Коноплянка				50.5102243	30.4656530
Пріорка	Приорка			50.5069489	30.4662664
2-й мікрорайон Виноградаря	2-й микрорайон Виноградаря			50.5114709	30.4191846
Катеринівка	Катериновка			50.4521903	30.3257005
Дарниця	Дарница			50.4387860	30.6364750
Нова Забудова	Новое Строение			50.4295260	30.5137630
Старий Київ	Старый Киев			50.4535179	30.5160664
Печерськ	Печерск			50.4290880	30.5408925
Теремки	Теремки			50.3721856	30.4531931
Авіамістечко	Авиагородок			50.4617799	30.3822565
Академмістечко				50.4628023	30.3694872
Біличі	Беличи			50.4648128	30.3457055
Видубичі	Выдубичи			50.4174272	30.5655015
Волейків	Волейков			50.4680095	30.4295272
Відрадний	Отрадный			50.4375679	30.4218060
Городище Кия				50.4580425	30.5159877
Жовтневе	Жовтневое			50.4404834	30.3649923
Караваєві дачі	Караваевы Дачи			50.4272056	30.4355967
Клов	Клов			50.4399769	30.5345936
Кудрявець	Кудрявец			50.4567792	30.5007665
Липки	Липки			50.4448626	30.5328341
Микільська Борщагівка	Никольская Борщаговка			50.4299596	30.3788076
Михайлівська Борщагівка	Михайловская Борщаговка			50.4071714	30.4150314
Го́род Володимира	Град Владимира			50.4568951	30.5184405
Перемога				50.4371393	30.3950373
Південна Борщагівка	Южная Борщаговка			50.4121565	30.3996679
Святошин	Святошин			50.4577056	30.3745815
Сирець	Сырец			50.4743058	30.4418829
Царське Село	Царское Село			50.4258954	30.5467527
Черепанова гора	Черепанова гора			50.4308831	30.5287965
село Осокорки				50.3999518	30.6049939
Село Троєщина				50.5196225	30.5869075
1-й мікрорайон Північно-Броварського масиву		1-й мікрорайон Комсомольського масиву		50.4664583	30.6212542
2-й мікрорайон Північно-Броварського масиву		2-й мікрорайон Комсомольського масиву		50.4622922	30.6216988
3-й мікрорайон Північно-Броварського масиву		3-й мікрорайон Комсомольського масиву		50.4605615	30.6110436
Ґалаґани				50.4534132	30.4002127
Балюківка				49.7591626	31.0434498
Злодіївка				49.7625063	31.0405106
Ковалівка				49.7520765	31.0451391
Містечко				49.7643939	31.0503032
Посьолок				49.7590450	31.0575173
Сахнівка				49.7567633	31.0511271
Чорнобильське поселення				49.5215273	29.9005169
Воскресенська слобідка				50.4826502	30.5861105
3-й мікрорайон Райдужного масиву	3-й микрорайон Радужного массива			50.4922193	30.5804093
1-й мікрорайон Райдужного масиву	1-й микрорайон Радужного массива			50.4786032	30.5924317
2-й мікрорайон Райдужного масиву	2-й микрорайон Радужного массива			50.4875767	30.5881847
Вигурівщина				50.4985122	30.6016600
Селище Радистів				50.4808236	30.6697790
СТ Більшовик	СТ Большевик			50.4987266	30.3767487
Таращанський масив	Таращанский массив			49.7725855	30.1289386
Дальні сади				50.5618543	29.9216621
Середні сади				50.5674290	29.9322840
Терезине	Терезино			49.8574030	30.1110610
Вільне				50.4966193	31.9904712
Залізничний масив	Железнодорожный массив			50.4225086	30.4889245
Костівка				49.7705454	31.0389440
Гайдаївка				49.7740376	31.0409610
Новосельня				49.7707306	31.0436719
ЖК «Софіївська Слобідка»	ЖК «Софиевская Слободка»			50.3994870	30.3764201
СТ «Агрохімік»				50.2887787	30.4879700
Тиша				50.2930218	30.3906391
Лелечий Хутор				50.4439926	30.0232985
Лісове	Посёлок Лесной			51.3888899	30.0722691
Крюківщина	Крюковщина			50.3719290	30.3716220
Селище Рибне	Посёлок Рыбное			50.4679377	30.7171001
Сахалін	Сахалин			50.4775412	30.3442520
Парня	Парня			50.7295150	30.7672330
Бровари	Бровары			50.5111168	30.7900482
урочище Галаганова Левада				50.4696867	31.8325467
урочище Городище				50.5136661	30.5781621
СТ Дружба				50.5012581	30.3849573
СТ Лісне				50.4992862	30.3680108
Олександрівська Слобідка	Александровская слободка			50.4205587	30.4776938
Русанівські сади	Русановские сады			50.4744251	30.5752743
Романків				50.2001949	30.9025618
Сальків	Сальков			50.2230134	30.7933207
Бурти				50.3706087	32.0232324
Брилівка	Брилёвка			49.3880160	30.3312300
Скарбовий ліс				50.4438053	30.3757195
Садове товариство "Ветеран"				50.5610481	30.5452139
Променисте				50.5989487	30.5925716
Дачний кооператив "Придніпровський"	Дачный кооператив "Приднепровский"			50.7308332	30.3770624
Дачний кооператив «Геофізик»	Дачный кооператив «Геофизик»			50.7254910	30.3731778
Гетовка	Гетовка			50.4029397	31.9208924
Грабківка	Грабкивка			50.4172237	31.9168622
Зарядівка	Зарядовка			50.4074027	31.9264745
Ковбасівка	Ковбасовка			50.4191954	31.8984053
Чмихалівка	Чмихаловка			50.4136083	31.9079869
Копачі	Копачи			51.3523915	30.1280067
Dooobra ferma				49.5226708	30.8670050
Табір				50.3637315	30.7870592
Дідовиця	Дедовица			50.5899965	30.4606780
Мостище				50.5554942	30.2942607
Червоний відділок	Красный участок			50.4668076	31.8092326
Тетянівка				49.8861718	30.0592285
Хутір Микільський	Хутор Никольский			50.5795073	30.4482321
Озера-15				50.6336794	30.2594148
Світанок-2	Свитанок-2			50.1804572	30.6962622
Ратай	Ратай			50.3453954	30.3992558
Станція Спартак				50.6767580	29.7375985
71 км				50.6758352	29.7317206
УчГосп	УчХоз			50.5300780	30.1813320
Шовковик	Шелковик			50.3500527	30.3811791
Верстатобудівник	Верстатостроитель			50.3511666	30.3785772
Вишневе УПП УТОС	Вишневое УПП УТОС			50.3518854	30.3760307
Ізумруд	Изумруд			50.3478533	30.3882925
Взуттєвик	Обувщик			50.3474378	30.3861413
Турист	Турист			50.3485529	30.3840944
Сокол	Сокол			50.3439362	30.3947156
Гевея	Гевея			50.3408925	30.3981830
Енергія	Энергия			50.3411322	30.4006845
Будівельник	Строитель			50.3439432	30.3926038
Кібернетик	Кибернетик			50.3477337	30.3899129
Машинобудівник	Машиностроитель			50.3547576	30.3713835
Вишневе	Вишневое			50.3526789	30.3687065
Іскра-1	Искра-1			50.3534020	30.3775169
УЮТ	УЮТ			50.3546099	30.3759754
Арсеналець-5	Арсеналец-5			50.3592888	30.3708721
Іскра-1	Искра-1			50.3533323	30.3689549
Іскра-1	Искра-1			50.3527880	30.3720703
Арсеналець	Арсеналец			50.3564138	30.3759849
Арсеналець-5	Арсеналец-5			50.3580019	30.3794074
Котеджне містечко				50.2515632	30.4527914
Белгравія				50.4620072	30.1890377
Коти				51.0167853	30.1772976
Хмельницьке				49.4587832	29.8381352
Чоколівка	Чоколовка			50.4317682	30.4551047
Брідок				49.4578414	29.8571316
Мури				49.8392779	29.6598420
Площа бажання				49.8390239	29.6600256
Вершина	Вершина			50.4301184	31.8840665
Ялівщина	Яловщина			50.4182721	31.9431906
Рига	Рига			50.3885476	31.9643247
Товста	Товста			50.3882740	31.8908858
Грушківка	Грушковка			50.4273582	31.9394660
Галагани	Галаганы			50.4728907	31.7882967
Чорнобильський мікрорайон	Чернобыльский микрорайон			50.5127119	31.7969683
Ковалівка	Коваливка			50.4960961	31.7617214
Козаківка	Козаковка			50.5032527	31.7525608
Кривокониха	Кривокониха			50.4831898	31.7951939
Чорнобиль-2	Чернобыль-2			51.3073810	30.0741291
Лопохуватий				50.5056230	30.5558241
Пипківка	Пипковка			50.5055511	31.7754865
Берізки	Березки			50.5919672	30.4822809
Ворочок	Ворочек			50.3978895	31.9229297
Ясківщина	Ясковщина			50.4118237	31.9192422
Радгосп	Совхоз			50.4045943	31.9122496
Новоселиця	Новоселица			50.4154315	32.0348507
Миронівка	Мироновка			49.6583412	30.9824887
Шаповаловка	Шаповаловка			50.4930435	31.7696607
Бородаївка	Бородаевка			50.5108327	31.7866641
Байраки	Байраки			50.4805907	31.7831603
Мухівка	Муховка			50.5048841	31.7620754
Самоволка	Самоволка			50.4888559	31.8033600
Поліський масив	Полесский масcив			50.4950092	31.8015629
Батиєва гора				50.4287935	30.4935139
Кучмин Яр				50.4296683	30.4904938
Будиночки	Домики			50.4101090	31.9118312
Маєток Віктора Медведчука	Имение Виктора Медведчука			50.5475221	30.4609316
Маєток Михайла Охендовського	Имение Михаила Охендовского			50.5439341	30.4621732
Маєток Григорія Суркіса				50.5476005	30.4575368
Маєток Ігоря Суркіса				50.5460443	30.4589785
Комплекс Відпочинку "Пуща-Водиця"				50.5358475	30.4709767
Урочище Липки				50.5338232	30.1377886
Степівський ліс				49.2711225	29.8278113
Золота осінь				50.3071652	30.4108536
Новоселиця	Новоселица			50.3134140	31.6869897
Заводянщина	Заводянщина			50.3219534	31.6912812
Глечик	Глечик			50.3200524	31.6822636
Петрушків Яр				50.4051602	30.1646161
Карань	Карань			50.0447557	31.4292911
Борисівка	Борисовка			50.0948022	31.4145362
Дитинець	Дитинец			50.0661838	31.4635321
Солонці	Солонци			50.0843978	31.4413744
Спаська Левада	Спасская Левада			50.0700868	31.4396390
Андруші	Андруши			50.0634169	31.4323032
Лагері	Лагери			50.0602297	31.4525995
Підварки	Пидварки			50.0866076	31.4779919
Маєток Наталії Іванівни Кацуби				50.5977993	30.5468452
Маєток Сергія Володимировича Кацуби				50.5989775	30.5468238
Маєток Євгенія Миколайовича Бакуліна				50.5999377	30.5467165
Маєток Світлани Бакуліної				50.6010477	30.5467272
Росинка+				50.3345253	30.3786623
Берізка				50.3334588	30.3812654
Дружба				50.3326557	30.3841877
Лісне				50.3305497	30.3891551
Родничок				50.3284156	30.3941458
Фастівець	Фастовец			50.0559700	30.0424689
урочище Большая Блистюнь				51.1024053	30.3671305
Чайка				50.5760073	30.4894096
Піски				50.5730131	30.4855030
Відведена ділянка під приватну забудову				50.5787122	30.4662528
Відведена ділянка під приватну забудову				50.5980707	30.4817632
Хутір Мар'янівка				50.7742475	29.5974254
Урочище Попове	Урочище Попово			50.6506921	30.5898510
Урочище х. Осещина				50.6387565	30.5588900
Урочище Церковне				50.6538621	30.6039665
Урочище Волуйське	Урочище Волуйское			50.6955641	30.5802600
Софія Київська	София Киевская			50.4032326	30.3611035
Урочище Плиски				50.2187300	30.0507727
Ольжина гора	Ольгина гора			50.6035111	30.4926919
Сьоме небо				50.6066107	30.4900644
Болдивщина	Болдывщина			50.3757001	31.9698156
Новоселиця	Новоселица			50.3860596	31.9472362
Старе село	Старое село			50.4194166	31.9549229
ЖК Буча-Квартал				50.5417819	30.1905249
Урочище Чайкине				50.4646393	29.9179507
Сільхозхімія				50.6035437	30.4828687
Щекавицька площа		Червона Пресня площа		50.4688402	30.5105021
Хутір Красне				50.4799421	30.1291850
Млиново				50.3254374	30.6290829
Торгмаш				50.5067765	30.8266126
Переїзд				50.4943397	30.7861336
Старий центр				50.4982340	30.7692173
Пекарня				50.4962170	30.7561725
Геологорозвідка				50.5008168	30.7473319
Оболонь				50.5040787	30.7636397
Зелена поляна				50.5173832	30.7602924
Масив				50.5116509	30.7908599
Порошинка				50.5133918	30.7847468
Промзона				50.5289330	30.8180414
Сонцтаун				50.4437183	30.2998149
Рудий ліс				51.3815713	30.0578964
Європейське місто				50.3772110	30.3809211
Планерна гірка				50.2602844	30.5296218
